{
    "links": {
        "self": "http://www.neowsapp.com/rest/v1/neo/3789120?api_key=iIulBulltgU6a56xZRHN4H3l9WmuAYTsLGpBGhQ2"
    },
    "id": "3789120",
    "neo_reference_id": "3789120",
    "name": "(2017 VY1)",
    "designation": "2017 VY1",
    "nasa_jpl_url": "http://ssd.jpl.nasa.gov/sbdb.cgi?sstr=3789120",
    "absolute_magnitude_h": 25.0,
    "estimated_diameter": {
        "kilometers": {
            "estimated_diameter_min": 0.02658,
            "estimated_diameter_max": 0.0594346868
        },
        "meters": {
            "estimated_diameter_min": 26.58,
            "estimated_diameter_max": 59.4346868419
        },
        "miles": {
            "estimated_diameter_min": 0.0165160412,
            "estimated_diameter_max": 0.0369309908
        },
        "feet": {
            "estimated_diameter_min": 87.2047272,
            "estimated_diameter_max": 194.9956979785
        }
    },
    "is_potentially_hazardous_asteroid": false,
    "close_approach_data": [
        {
            "close_approach_date": "2017-11-03",
            "close_approach_date_full": "2017-Nov-03 23:11",
            "epoch_date_close_approach": 1509750660000,
            "relative_velocity": {
                "kilometers_per_second": "7.4462732305",
                "kilometers_per_hour": "26806.5836299148",
                "miles_per_hour": "16656.5685893768"
            },
            "miss_distance": {
                "astronomical": "0.0557575718",
                "lunar": "21.6896954302",
                "kilometers": "8341213.977652066",
                "miles": "5182990.0272718708"
            },
            "orbiting_body": "Earth"
        }
    ],
    "orbital_data": {
        "orbit_id": "5",
        "orbit_determination_date": "2017-12-29 06:22:07",
        "first_observation_date": "2017-11-10",
        "last_observation_date": "2017-11-25",
        "data_arc_in_days": 15,
        "observations_used": 50,
        "orbit_uncertainty": "7",
        "minimum_orbit_intersection": ".0489775",
        "jupiter_tisserand_invariant": "3.248",
        "epoch_osculation": "2459000.5",
        "eccentricity": ".5747894398758568",
        "semi_major_axis": "2.441475046687998",
        "inclination": "5.089661437274607",
        "ascending_node_longitude": "23.27143305090813",
        "orbital_period": "1393.403386550559",
        "perihelion_distance": "1.038140972131322",
        "perihelion_argument": "15.42645344584793",
        "aphelion_distance": "3.844809121244674",
        "perihelion_time": "2459452.559031744319",
        "mean_anomaly": "243.2059308892387",
        "mean_motion": ".2583602160543031",
        "equinox": "J2000",
        "orbit_class": {
            "orbit_class_type": "AMO",
            "orbit_class_description": "Near-Earth asteroid orbits similar to that of 1221 Amor",
            "orbit_class_range": "1.017 AU < q (perihelion) < 1.3 AU"
        }
    },
    "is_sentry_object": false
}